#dP2023  1  1  0  0  0.00000000     288   u+U IGS20 FIT  GFZ                    
## 2243      0.00000000   300.00000000 59945 0.0000000000000                    
+  124   C01C02C03C04C05C06C07C08C09C10C11C12C13C14C16C19C20                    
+        C21C22C23C24C25C26C27C28C29C30C32C33C34C36C37C38C39                    
+        C40C41C42C43C44C45C46C59C60E01E02E03E04E05E07E08E09                    
+        E10E11E12E13E14E15E18E19E21E24E25E26E27E30E31E33E34                    
+        E36G01G02G03G04G05G06G07G08G09G10G11G12G13G14G15G16                    
+        G17G18G19G20G21G22G23G24G25G26G27G29G30G31G32J02J03                    
+        J04R01R02R03R04R05R07R08R09R11R12R13R14R15R16R17R18                    
+        R19R20R21R22R24 00 00 00 00 00 00 00 00 00 00 00 00                    
++        10 10 10 10 10 10 10 10 10 10  7  9  9  8 10  6  8                    
++         8  7  6  7  5  6  8  8  7  6  8  7  7  6  7 10  9                    
++        10  6  6  5  6  6  8 10 10  5  6  6  5  5  9  5  7                    
++         8  6  5  7  6  6  5  8  7  6  5  6  7  5  8  7  8                    
++         8  7  6  5  5  6  5  6  5  5  5  5  5  5  6  5  5                    
++         8  7  6  6  8  5  6  5  7  5  5  6  5  5  5 10 10                    
++        10  8  5 10  6  7  5  5 10  7  7  9  7  7  7  6  5                    
++         9  8  6  9  6  0  0  0  0  0  0  0  0  0  0  0  0                    
%c M  cc GPS ccc cccc cccc cccc cccc ccccc ccccc ccccc ccccc                    
%c cc cc ccc ccc cccc cccc cccc cccc ccccc ccccc ccccc ccccc                    
%f  1.2500000  1.025000000  0.00000000000  0.000000000000000                    
%f  0.0000000  0.000000000  0.00000000000  0.000000000000000                    
%i    0    0    0    0      0      0      0      0         0                    
%i    0    0    0    0      0      0      0      0         0                    
/* PCV:IGS20_2221 OL/AL:FES2014b NONE     YN CLK:CoN ORB:CoN                    
/*     GeoForschungsZentrum Potsdam                                             
/*                                                                              
/*                                                                              
*  2023  1  1 13 40  0.00000000                                                 
PC01 -34318.067657  24524.125575    181.897970    923.594981                    
PC02   4346.123125  41895.115842   -819.191985      7.584807                    
PC03 -14777.433330  39455.574148   -306.437134     16.061206                    
PC04 -39604.704774  14494.936031    557.708644   -225.183180                    
PC05  21818.548627  36005.007357  -1364.943398    253.382717                    
PC06   -793.945598  30600.895941 -28872.581593    209.408510                    
PC07 -13722.861253  28954.983263  27373.214146     78.153255                    
PC08 -11618.967830  40631.812462   -654.273656    526.269050                    
PC09   5847.476638  33979.965000 -23518.397118     84.314891                    
PC10  -7323.553231  28998.898173  29858.668295     40.645958                    
PC11 -16732.826177 -21044.618479  -7356.939831   -202.615717                    
PC12   -870.612407 -18686.583735 -20658.737767    375.155910                    
PC13  -7308.063778  41244.897758  -5812.341499    172.694172                    
PC14 -10784.816683 -12441.986642  22539.594282    323.531143                    
PC16  -3384.351631  28386.412142 -30726.480163     90.704173                    
PC19  19670.354869   6221.587887 -18774.685458   -899.434633                    
PC20   2191.930219  15846.623043 -22852.981915    784.319211                    
PC21  17993.704108 -16606.460743  13414.456689   -920.419058                    
PC22  26664.977532  -7404.722195  -3672.765082   -708.762099                    
PC23 -16732.448259   5677.352173 -21605.563892   -870.813814                    
PC24    102.600003 -27229.125188  -6050.298609   -597.884112                    
PC25 -12819.640219 -14086.217958 -20400.268237     48.621387                    
PC26  10474.294636 -23924.787436   9759.987032    -58.142065                    
PC27  -7892.314864  14024.666213  22781.858742     75.037859                    
PC28 -20966.287570   -910.387971  18401.202633     53.936051                    
PC29  22903.019051  15786.386753  -2217.262057     61.591500                    
PC30  10159.577729  21163.063228  15068.285161      1.271527                    
PC32 -17938.033697  16714.333229 -13310.551246   -663.650268                    
PC33 -19614.498733  -6226.276009  18846.552312   -885.760790                    
PC34 -11242.876334 -21288.990921 -14137.582662     74.035252                    
PC36  12168.101694  15068.052158  20110.521479   -725.566736                    
PC37 -11726.653690  22849.876724 -10944.700746   -861.394144                    
PC38 -14868.730752  39026.041625   6518.746121     49.004196                    
PC39  -7010.334331  25235.466261 -32963.747899     -1.246046                    
PC40 -21306.972116  23004.954599  28094.020406    -11.495441                    
PC41 -26663.137847   7052.363991   4314.528806   -444.798433                    
PC42   -807.827993 -16328.926617  22658.729109   -922.456824                    
PC43 -22611.387882 -16313.289008   1436.681508     33.110460                    
PC44   7625.033926 -14313.876293 -22718.815542    163.544837                    
PC45  16605.893694  -6098.465987  21568.885032    -42.062422                    
PC46   1076.931075  26818.240939   7716.377805    -23.488808                    
PC59 -32325.571909  27076.775667   -659.286118      0.465538                    
PC60   7310.595612  41526.170085    581.573025     -0.608139                    
PE01 -19692.943459   -217.709821 -22104.019623   -588.163843                    
PE02  19831.101671    -93.495681  21962.161582     12.090064                    
PE03  29040.754597   5705.833070   -675.859304   -635.605794                    
PE04 -23490.770680   7483.589860 -16384.220828    -26.735506                    
PE05  17622.622501  15845.450809 -17734.522214   -109.406184                    
PE07   3951.730901 -16583.955544  24197.515517    -11.771440                    
PE08  23512.861633  -7391.344450  16390.929059    -12.318252                    
PE09  -4112.593535  16408.253225 -24292.361868   -784.637048                    
PE10  -6829.771203  20053.649021  20675.715238   -501.961918                    
PE11    697.119940  26595.558483  12960.466279    267.503575                    
PE12 -12788.160213  11003.931403  24324.658355   -366.544584                    
PE13   -136.646550 -26210.498279 -13747.782823    430.153685                    
PE14 -14650.027613 -17784.515506 -15031.778624    101.115307                    
PE15  12845.714072 -10682.108788 -24422.431543    697.066448                    
PE18  27963.527787  11059.517976   1942.202744   -560.102093                    
PE19 -28455.845662  -7496.343415   3246.277992  -3596.286363                    
PE21  -6850.767090 -16701.238434 -23459.902066   -503.719653                    
PE24 -11718.694268  24985.159227  10730.644880  -1033.967821                    
PE25   6554.625937  16952.139796  23368.135008   -596.237591                    
PE26 -13295.627930 -25831.926502   5669.408185  -1864.241123                    
PE27  10883.406098 -24976.526325 -11550.449997   -477.202070                    
PE30  22283.548394 -17884.660297   7676.925824  -1125.143565                    
PE31 -22037.909306  18474.976649  -7036.166279   -512.173529                    
PE33 -18160.047027 -11044.124273  20614.815419   -454.970099                    
PE34  18176.607516  10843.474066 -20695.033523    -22.600277                    
PE36  12875.241279  26205.260372  -4838.585170   -483.987265                    
PG01 -14594.232536   1092.634682  21874.323173    229.975434                    
PG02  13581.528573  -5895.356627 -21424.707053   -629.841753                    
PG03 -21203.814339   9627.976335  12550.379179   -374.220170                    
PG04 -24286.835413    822.540415 -10846.078885    -57.354315                    
PG05  16141.662292   3736.067395 -20953.353150   -110.313297                    
PG06   5432.540789  25843.111457   2428.384422    551.139862                    
PG07  -8846.672141  16578.754366 -18145.664041    265.717406                    
PG08 -26023.357604  -6266.130820   -500.891628   -101.479057                    
PG09 -16347.137474   9742.295223 -18626.823414   -243.866453                    
PG10   7678.187592 -21299.547027  13789.621442    -18.578570                    
PG11  12077.466719  21379.659290 -10159.949602    -69.023828                    
PG12  21701.189235  -7216.923385  13143.561497   -322.888355                    
PG13  22117.597292  13590.174934  -6250.728355    451.976213                    
PG14 -10423.296712  21453.009552  11563.589085    -57.793446                    
PG15  26469.927647   3568.608418   -775.541540      0.887038                    
PG16 -13238.505407  -8426.096642 -21773.341287   -524.996982                    
PG17  -2965.765725  14852.020848  22255.697591    690.280387                    
PG18   6967.231119 -19101.370286 -17008.835617    -81.794592                    
PG19   9786.148876  16691.497930  18082.155703    258.305520                    
PG20   7816.389055  14797.284435 -20644.046172    459.829491                    
PG21 -17397.928163  -7738.669557  19425.250302    153.105624                    
PG22 -12726.960828 -16731.689583  16767.162884    396.812174                    
PG23  16076.728067 -20788.952140   3269.532002      1.310126                    
PG24  16908.555060   2819.521446  20036.769789    -10.651692                    
PG25  20303.736005 -15971.432114   5182.815994    407.401056                    
PG26  -3540.073976 -17814.733814 -19372.830889    239.566020                    
PG27 -20785.798297 -12969.042968 -10983.484179    138.051852                    
PG29  18958.213685  -6157.476856 -17634.677904   -577.788314                    
PG30   -518.759535  24668.851826  -9390.821792   -534.272635                    
PG31  -6352.782855 -25524.008106    317.839981   -205.031283                    
PG32  -1328.504295 -15829.327714  21469.613740   -349.586818                    
PJ02 -28727.036092  30705.746372   1563.996355     -0.452798                    
PJ03 -24208.084472  24626.681064  29323.138511     -7.991113                    
PJ04 -33338.729190  23991.334503  -4269.047630    117.075366                    
PR01 -24020.901480    770.552153   8538.184138     20.520875                    
PR02 -21720.370265   8612.516091 -10276.077521    -23.339138                    
PR03  -6420.475626  11602.244055 -21760.675399     70.131699                    
PR04  12041.487642   7860.919813 -21037.489626    170.746245                    
PR05  23933.125479     60.824339  -8773.271643    105.499617                    
PR07   5438.808078 -11574.822780  22096.993341     47.201019                    
PR08 -12284.093409  -7874.931318  20986.793387    -68.806514                    
PR09  12735.627859 -17930.118818  13000.134482     96.194672                    
PR11  -2945.437076 -17791.943286 -18038.788396     10.303577                    
PR12 -11695.551026    554.490866 -22644.658336     24.027100                    
PR13 -12969.865751  16549.511883 -14466.624211    -30.519970                    
PR14  -6455.840200  24361.203227   3905.247188     24.162162                    
PR15   3485.946152  17029.754073  18682.479985     91.988390                    
PR16  11461.565004   -323.710978  22791.714305      9.411270                    
PR17   4336.600945  17800.838740  17781.730649    591.969262                    
PR18  14928.329394  20413.452146   3141.073174     59.665379                    
PR19  17605.653864  13940.010548 -12094.666139   -216.667101                    
PR20   9861.959816  -4047.282835 -23155.691001    -85.040504                    
PR21  -5527.634401 -18491.561738 -16657.681313   -362.043779                    
PR22 -14547.401834 -20843.453600  -2206.830553     64.794659                    
PR24  -9692.638132   5216.644897  23033.790672    136.657306                    
EOF                                     
